IRIDIUM 112             
1 41925U 17003J   25296.40895968  .00000093  00000+0  26290-4 0  9999
2 41925  86.4028 187.2194 0002253  86.0762 274.0691 14.34218612459339
IRIDIUM 113             
1 42803U 17039A   25296.58554696  .00000517  00000+0  17747-3 0  9990
2 42803  86.3962  61.0541 0002132  91.6159 268.5281 14.34217984437277
IRIDIUM 123             
1 42804U 17039B   25296.48748597  .00000064  00000+0  15769-4 0  9995
2 42804  86.3924  92.5922 0001990  81.0600 279.0821 14.34216510436026
IRIDIUM 120             
1 42805U 17039C   25296.43966626  .00000537  00000+0  18476-3 0  9998
2 42805  86.3955  60.9278 0001667  94.5983 265.5403 14.34218010437246
IRIDIUM 115             
1 42806U 17039D   25296.42308906  .00000463  00000+0  13176-3 0  9999
2 42806  86.4492  61.0308 0001816  76.9141 283.2262 14.43280562440117
IRIDIUM 118             
1 42807U 17039E   25296.51920083 -.00000055  00000+0 -26660-4 0  9998
2 42807  86.3922  92.5783 0002179  91.8770 268.2675 14.34217104436026
IRIDIUM 117             
1 42808U 17039F   25296.46845994 -.00000127  00000+0 -52551-4 0  9998
2 42808  86.3921  92.5594 0002014  83.9260 276.2165 14.34216712436049
